start=new Date('2022-09-07T00:00:00.000Z').valueOf();
sats=[{"CENTER_NAME":"EARTH","SITE":"AFETR","PERIOD":"95.204","REV_AT_EPOCH":"130","ARG_OF_PERICENTER":"57.1461","MEAN_MOTION_DDOT":"0.0000000000000","RA_OF_ASC_NODE":"189.2671","APOAPSIS":"529.597","LAUNCH_DATE":"2022-07-24","EPOCH":"2022-09-06T22:00:00.999936","TLE_LINE2":"2 53243  53.2176 189.2671 0001632  57.1461 128.7871 15.12536545  1308","INCLINATION":"53.2176","NORAD_CAT_ID":"53243","MEAN_ELEMENT_THEORY":"SGP4","TIME_SYSTEM":"UTC","SEMIMAJOR_AXIS":"6906.605","ELEMENT_SET_NO":"999","ECCENTRICITY":"0.00016320","MEAN_MOTION":"15.12536545","OBJECT_NAME":"STARLINK-4047","OBJECT_ID":"2022-086B","MEAN_MOTION_DOT":"-0.01130964","DECAY_DATE":null,"REF_FRAME":"TEME","MEAN_ANOMALY":"128.7871","EPHEMERIS_TYPE":"0","BSTAR":"-0.06957500000000","GP_ID":"211924016","RCS_SIZE":"LARGE","CLASSIFICATION_TYPE":"U","FILE":"3561419","COUNTRY_CODE":"US","OBJECT_TYPE":"PAYLOAD","TLE_LINE1":"1 53243U 22086B   22249.91667824 -.01130964  00000-0 -69575-1 0  9996","PERIAPSIS":"527.342"},{"LAUNCH_DATE":"2022-07-24","EPOCH":"2022-09-06T22:00:00.999936","TLE_LINE2":"2 53244  53.2176 189.2746 0001701  49.1793 190.9665 15.13467014  1305","APOAPSIS":"526.813","RA_OF_ASC_NODE":"189.2746","ARG_OF_PERICENTER":"49.1793","REV_AT_EPOCH":"130","SITE":"AFETR","PERIOD":"95.146","CENTER_NAME":"EARTH","MEAN_MOTION_DDOT":"0.0000000000000","OBJECT_NAME":"STARLINK-4125","MEAN_MOTION":"15.13467014","ECCENTRICITY":"0.00017010","TIME_SYSTEM":"UTC","SEMIMAJOR_AXIS":"6903.774","ELEMENT_SET_NO":"999","NORAD_CAT_ID":"53244","MEAN_ELEMENT_THEORY":"SGP4","INCLINATION":"53.2176","EPHEMERIS_TYPE":"0","GP_ID":"211924531","BSTAR":"-0.06779400000000","MEAN_ANOMALY":"190.9665","REF_FRAME":"TEME","MEAN_MOTION_DOT":"-0.01131269","OBJECT_ID":"2022-086C","DECAY_DATE":null,"OBJECT_TYPE":"PAYLOAD","PERIAPSIS":"524.464","TLE_LINE1":"1 53244U 22086C   22249.91667824 -.01131269  00000-0 -67794-1 0  9997","COUNTRY_CODE":"US","RCS_SIZE":"LARGE","FILE":"3561419","CLASSIFICATION_TYPE":"U"},{"RA_OF_ASC_NODE":"189.2698","MEAN_MOTION_DDOT":"0.0000000000000","PERIOD":"95.185","SITE":"AFETR","CENTER_NAME":"EARTH","ARG_OF_PERICENTER":"55.8764","REV_AT_EPOCH":"130","TLE_LINE2":"2 53245  53.2177 189.2698 0001643  55.8764 148.2590 15.12848679  1302","EPOCH":"2022-09-06T22:00:00.999936","LAUNCH_DATE":"2022-07-24","APOAPSIS":"528.654","ELEMENT_SET_NO":"999","SEMIMAJOR_AXIS":"6905.655","TIME_SYSTEM":"UTC","INCLINATION":"53.2177","NORAD_CAT_ID":"53245","MEAN_ELEMENT_THEORY":"SGP4","OBJECT_NAME":"STARLINK-4124","ECCENTRICITY":"0.00016430","MEAN_MOTION":"15.12848679","REF_FRAME":"TEME","DECAY_DATE":null,"OBJECT_ID":"2022-086D","MEAN_MOTION_DOT":"-0.01130922","BSTAR":"-0.06896400000000","GP_ID":"211923449","EPHEMERIS_TYPE":"0","MEAN_ANOMALY":"148.2590","CLASSIFICATION_TYPE":"U","FILE":"3561419","RCS_SIZE":"LARGE","TLE_LINE1":"1 53245U 22086D   22249.91667824 -.01130922  00000-0 -68964-1 0  9993","PERIAPSIS":"526.385","OBJECT_TYPE":"PAYLOAD","COUNTRY_CODE":"US"},{"INCLINATION":"53.2167","NORAD_CAT_ID":"53246","MEAN_ELEMENT_THEORY":"SGP4","TIME_SYSTEM":"UTC","ELEMENT_SET_NO":"999","SEMIMAJOR_AXIS":"6904.597","ECCENTRICITY":"0.00017490","MEAN_MOTION":"15.13196397","OBJECT_NAME":"STARLINK-4131","PERIOD":"95.163","SITE":"AFETR","CENTER_NAME":"EARTH","REV_AT_EPOCH":"130","ARG_OF_PERICENTER":"55.3758","MEAN_MOTION_DDOT":"0.0000000000000","RA_OF_ASC_NODE":"189.2733","APOAPSIS":"527.669","EPOCH":"2022-09-06T22:00:00.999936","LAUNCH_DATE":"2022-07-24","TLE_LINE2":"2 53246  53.2167 189.2733 0001749  55.3758 166.7957 15.13196397  1303","RCS_SIZE":"LARGE","CLASSIFICATION_TYPE":"U","FILE":"3561419","COUNTRY_CODE":"US","OBJECT_TYPE":"PAYLOAD","TLE_LINE1":"1 53246U 22086E   22249.91667824 -.01176231  00000-0 -71262-1 0  9992","PERIAPSIS":"525.254","OBJECT_ID":"2022-086E","MEAN_MOTION_DOT":"-0.01176231","DECAY_DATE":null,"REF_FRAME":"TEME","MEAN_ANOMALY":"166.7957","EPHEMERIS_TYPE":"0","BSTAR":"-0.07126200000000","GP_ID":"211923757"},{"REF_FRAME":"TEME","OBJECT_ID":"2022-086F","MEAN_MOTION_DOT":"-0.01108757","DECAY_DATE":null,"EPHEMERIS_TYPE":"0","BSTAR":"-0.03074300000000","GP_ID":"211923604","MEAN_ANOMALY":"140.1118","RCS_SIZE":"LARGE","CLASSIFICATION_TYPE":"U","FILE":"3561419","OBJECT_TYPE":"PAYLOAD","TLE_LINE1":"1 53247U 22086F   22249.91667824 -.01108757  00000-0 -30743-1 0  9990","PERIAPSIS":"447.662","COUNTRY_CODE":"US","RA_OF_ASC_NODE":"185.7323","SITE":"AFETR","PERIOD":"93.558","CENTER_NAME":"EARTH","REV_AT_EPOCH":"130","ARG_OF_PERICENTER":"73.2053","MEAN_MOTION_DDOT":"0.0000000000000","LAUNCH_DATE":"2022-07-24","EPOCH":"2022-09-06T22:00:00.999936","TLE_LINE2":"2 53247  53.2174 185.7323 0001404  73.2053 140.1118 15.39151189  1306","APOAPSIS":"449.579","TIME_SYSTEM":"UTC","SEMIMAJOR_AXIS":"6826.755","ELEMENT_SET_NO":"999","INCLINATION":"53.2174","MEAN_ELEMENT_THEORY":"SGP4","NORAD_CAT_ID":"53247","OBJECT_NAME":"STARLINK-4061","ECCENTRICITY":"0.00014040","MEAN_MOTION":"15.39151189"},{"ECCENTRICITY":"0.00013540","MEAN_MOTION":"15.39605390","OBJECT_NAME":"STARLINK-4135","INCLINATION":"53.2176","NORAD_CAT_ID":"53248","MEAN_ELEMENT_THEORY":"SGP4","ELEMENT_SET_NO":"999","SEMIMAJOR_AXIS":"6825.412","TIME_SYSTEM":"UTC","APOAPSIS":"448.201","TLE_LINE2":"2 53248  53.2176 186.1335 0001354  64.8950  52.1290 15.39605390  1304","LAUNCH_DATE":"2022-07-24","EPOCH":"2022-09-06T20:00:01.000224","MEAN_MOTION_DDOT":"0.0000000000000","CENTER_NAME":"EARTH","SITE":"AFETR","PERIOD":"93.530","ARG_OF_PERICENTER":"64.8950","REV_AT_EPOCH":"130","RA_OF_ASC_NODE":"186.1335","COUNTRY_CODE":"US","TLE_LINE1":"1 53248U 22086G   22249.83334491 -.01068127  00000-0 -29079-1 0  9999","PERIAPSIS":"446.353","OBJECT_TYPE":"PAYLOAD","CLASSIFICATION_TYPE":"U","FILE":"3561419","RCS_SIZE":"LARGE","MEAN_ANOMALY":"52.1290","BSTAR":"-0.02907900000000","GP_ID":"211924326","EPHEMERIS_TYPE":"0","DECAY_DATE":null,"OBJECT_ID":"2022-086G","MEAN_MOTION_DOT":"-0.01068127","REF_FRAME":"TEME"},{"APOAPSIS":"391.266","TLE_LINE2":"2 53249  53.2174 184.3641 0001164  80.7984 199.8401 15.59025510  1301","LAUNCH_DATE":"2022-07-24","EPOCH":"2022-09-06T20:00:01.000224","MEAN_MOTION_DDOT":"0.0000000000000","REV_AT_EPOCH":"130","ARG_OF_PERICENTER":"80.7984","SITE":"AFETR","PERIOD":"92.365","CENTER_NAME":"EARTH","RA_OF_ASC_NODE":"184.3641","MEAN_MOTION":"15.59025510","ECCENTRICITY":"0.00011640","OBJECT_NAME":"STARLINK-4128","NORAD_CAT_ID":"53249","MEAN_ELEMENT_THEORY":"SGP4","INCLINATION":"53.2174","ELEMENT_SET_NO":"999","SEMIMAJOR_AXIS":"6768.613","TIME_SYSTEM":"UTC","MEAN_ANOMALY":"199.8401","GP_ID":"211923863","BSTAR":"-0.01470200000000","EPHEMERIS_TYPE":"0","DECAY_DATE":null,"MEAN_MOTION_DOT":"-0.01061222","OBJECT_ID":"2022-086H","REF_FRAME":"TEME","COUNTRY_CODE":"US","PERIAPSIS":"389.690","TLE_LINE1":"1 53249U 22086H   22249.83334491 -.01061222  00000-0 -14702-1 0  9996","OBJECT_TYPE":"PAYLOAD","FILE":"3561419","CLASSIFICATION_TYPE":"U","RCS_SIZE":"LARGE"},{"BSTAR":"-0.01471000000000","GP_ID":"211924170","EPHEMERIS_TYPE":"0","MEAN_ANOMALY":"198.1862","REF_FRAME":"TEME","DECAY_DATE":null,"OBJECT_ID":"2022-086J","MEAN_MOTION_DOT":"-0.01061247","TLE_LINE1":"1 53250U 22086J   22249.83334491 -.01061247  00000-0 -14710-1 0  9994","PERIAPSIS":"389.728","OBJECT_TYPE":"PAYLOAD","COUNTRY_CODE":"US","CLASSIFICATION_TYPE":"U","FILE":"3561419","RCS_SIZE":"LARGE","TLE_LINE2":"2 53250  53.2174 184.3574 0001167  80.9601 198.1862 15.59011922  1304","EPOCH":"2022-09-06T20:00:01.000224","LAUNCH_DATE":"2022-07-24","APOAPSIS":"391.307","RA_OF_ASC_NODE":"184.3574","MEAN_MOTION_DDOT":"0.0000000000000","SITE":"AFETR","CENTER_NAME":"EARTH","PERIOD":"92.366","ARG_OF_PERICENTER":"80.9601","REV_AT_EPOCH":"130","OBJECT_NAME":"STARLINK-4059","ECCENTRICITY":"0.00011670","MEAN_MOTION":"15.59011922","ELEMENT_SET_NO":"999","SEMIMAJOR_AXIS":"6768.652","TIME_SYSTEM":"UTC","INCLINATION":"53.2174","MEAN_ELEMENT_THEORY":"SGP4","NORAD_CAT_ID":"53250"},{"TIME_SYSTEM":"UTC","ELEMENT_SET_NO":"999","SEMIMAJOR_AXIS":"6768.573","INCLINATION":"53.2174","MEAN_ELEMENT_THEORY":"SGP4","NORAD_CAT_ID":"53251","OBJECT_NAME":"STARLINK-4129","ECCENTRICITY":"0.00011600","MEAN_MOTION":"15.59039333","RA_OF_ASC_NODE":"184.3796","SITE":"AFETR","PERIOD":"92.365","CENTER_NAME":"EARTH","REV_AT_EPOCH":"130","ARG_OF_PERICENTER":"92.4696","MEAN_MOTION_DDOT":"0.0000000000000","EPOCH":"2022-09-06T20:00:01.000224","LAUNCH_DATE":"2022-07-24","TLE_LINE2":"2 53251  53.2174 184.3796 0001160  92.4696 189.6606 15.59039333  1303","APOAPSIS":"391.223","RCS_SIZE":"LARGE","CLASSIFICATION_TYPE":"U","FILE":"3561419","OBJECT_TYPE":"PAYLOAD","TLE_LINE1":"1 53251U 22086K   22249.83334491 -.01061205  00000-0 -14694-1 0  9990","PERIAPSIS":"389.653","COUNTRY_CODE":"US","REF_FRAME":"TEME","OBJECT_ID":"2022-086K","MEAN_MOTION_DOT":"-0.01061205","DECAY_DATE":null,"EPHEMERIS_TYPE":"0","BSTAR":"-0.01469400000000","GP_ID":"211924017","MEAN_ANOMALY":"189.6606"},{"APOAPSIS":"391.283","TLE_LINE2":"2 53252  53.2174 184.3628 0001161  89.9660 189.9264 15.59018773  1309","LAUNCH_DATE":"2022-07-24","EPOCH":"2022-09-06T20:00:01.000224","MEAN_MOTION_DDOT":"0.0000000000000","ARG_OF_PERICENTER":"89.9660","REV_AT_EPOCH":"130","PERIOD":"92.366","SITE":"AFETR","CENTER_NAME":"EARTH","RA_OF_ASC_NODE":"184.3628","MEAN_MOTION":"15.59018773","ECCENTRICITY":"0.00011610","OBJECT_NAME":"STARLINK-4132","MEAN_ELEMENT_THEORY":"SGP4","NORAD_CAT_ID":"53252","INCLINATION":"53.2174","ELEMENT_SET_NO":"999","SEMIMAJOR_AXIS":"6768.633","TIME_SYSTEM":"UTC","MEAN_ANOMALY":"189.9264","GP_ID":"211924532","BSTAR":"-0.01470600000000","EPHEMERIS_TYPE":"0","DECAY_DATE":null,"MEAN_MOTION_DOT":"-0.01061235","OBJECT_ID":"2022-086L","REF_FRAME":"TEME","COUNTRY_CODE":"US","PERIAPSIS":"389.712","TLE_LINE1":"1 53252U 22086L   22249.83334491 -.01061235  00000-0 -14706-1 0  9998","OBJECT_TYPE":"PAYLOAD","FILE":"3561419","CLASSIFICATION_TYPE":"U","RCS_SIZE":"LARGE"}];
